{
  "type": "FeatureCollection",
  "features": [
    {
      "type": "Feature",
      "properties": {
        "norad_id": 31026,
        "name": "FENGYUN 1C DEB",
        "group": "fengyun-1c-debris",
        "lat": 9.273922584367035,
        "lon": -78.48651171925843,
        "alt_km": 1050.6932312005547,
        "timestamp": "2025-12-13T10:41:26.046362+00:00",
        "meta_object_name": "FENGYUN 1C DEB",
        "meta_object_id": "1999-025BDU",
        "meta_epoch": "2025-12-12T14:40:18.107616",
        "meta_mean_motion": 13.83398795,
        "meta_eccentricity": 0.0134314,
        "meta_inclination": 98.7794,
        "meta_ra_of_asc_node": 282.1807,
        "meta_arg_of_pericenter": 182.8766,
        "meta_mean_anomaly": 355.0031,
        "meta_ephemeris_type": 0,
        "meta_classification_type": "U",
        "meta_norad_cat_id": 31026,
        "meta_element_set_no": 999,
        "meta_rev_at_epoch": 68024,
        "meta_bstar": 0.00025386368,
        "meta_mean_motion_dot": 2.59e-06,
        "meta_mean_motion_ddot": 0,
        "tle_line1": "1 31026U 99025BDU 25346.61132069  .00000259  00000+0  25386-3 0  9997",
        "tle_line2": "2 31026  98.7794 282.1807 0134314 182.8766 355.0031 13.83398795680243"
      },
      "geometry": {
        "type": "Point",
        "coordinates": [
          -78.48651171925843,
          9.273922584367035
        ]
      }
    },
    {
      "type": "Feature",
      "properties": {
        "norad_id": 31028,
        "name": "FENGYUN 1C DEB",
        "group": "fengyun-1c-debris",
        "lat": 33.88079921100704,
        "lon": -86.6546419546556,
        "alt_km": 952.780336081737,
        "timestamp": "2025-12-13T10:41:26.046372+00:00",
        "meta_object_name": "FENGYUN 1C DEB",
        "meta_object_id": "1999-025BDW",
        "meta_epoch": "2025-12-12T13:46:54.884640",
        "meta_mean_motion": 13.89071845,
        "meta_eccentricity": 0.01645799,
        "meta_inclination": 98.7056,
        "meta_ra_of_asc_node": 278.4361,
        "meta_arg_of_pericenter": 294.7979,
        "meta_mean_anomaly": 63.6137,
        "meta_ephemeris_type": 0,
        "meta_classification_type": "U",
        "meta_norad_cat_id": 31028,
        "meta_element_set_no": 999,
        "meta_rev_at_epoch": 62001,
        "meta_bstar": 0.00049447042,
        "meta_mean_motion_dot": 6.27e-06,
        "meta_mean_motion_ddot": 0,
        "tle_line1": "1 31028U 99025BDW 25346.57424635  .00000627  00000+0  49447-3 0  9990",
        "tle_line2": "2 31028  98.7056 278.4361 0164579 294.7979  63.6137 13.89071845620012"
      },
      "geometry": {
        "type": "Point",
        "coordinates": [
          -86.6546419546556,
          33.88079921100704
        ]
      }
    },
    {
      "type": "Feature",
      "properties": {
        "norad_id": 31029,
        "name": "FENGYUN 1C DEB",
        "group": "fengyun-1c-debris",
        "lat": 66.37136713372234,
        "lon": -136.5214115223688,
        "alt_km": 706.4466223540803,
        "timestamp": "2025-12-13T10:41:26.046383+00:00",
        "meta_object_name": "FENGYUN 1C DEB",
        "meta_object_id": "1999-025BDX",
        "meta_epoch": "2025-12-12T16:15:39.810240",
        "meta_mean_motion": 14.34322507,
        "meta_eccentricity": 0.00901153,
        "meta_inclination": 98.8585,
        "meta_ra_of_asc_node": 243.576,
        "meta_arg_of_pericenter": 74.0118,
        "meta_mean_anomaly": 351.2754,
        "meta_ephemeris_type": 0,
        "meta_classification_type": "U",
        "meta_norad_cat_id": 31029,
        "meta_element_set_no": 999,
        "meta_rev_at_epoch": 97795,
        "meta_bstar": 0.00050545228,
        "meta_mean_motion_dot": 1.44e-05,
        "meta_mean_motion_ddot": 0,
        "tle_line1": "1 31029U 99025BDX 25346.67754410  .00001440  00000+0  50545-3 0  9994",
        "tle_line2": "2 31029  98.8585 243.5760 0090115  74.0118 351.2754 14.34322507977959"
      },
      "geometry": {
        "type": "Point",
        "coordinates": [
          -136.5214115223688,
          66.37136713372234
        ]
      }
    },
    {
      "type": "Feature",
      "properties": {
        "norad_id": 31030,
        "name": "FENGYUN 1C DEB",
        "group": "fengyun-1c-debris",
        "lat": -42.138688782329915,
        "lon": -138.66114201040517,
        "alt_km": 834.8995537147503,
        "timestamp": "2025-12-13T10:41:26.046393+00:00",
        "meta_object_name": "FENGYUN 1C DEB",
        "meta_object_id": "1999-025BDY",
        "meta_epoch": "2025-12-12T15:48:22.112064",
        "meta_mean_motion": 14.23673726,
        "meta_eccentricity": 0.00278096,
        "meta_inclination": 98.7668,
        "meta_ra_of_asc_node": 48.5808,
        "meta_arg_of_pericenter": 84.4916,
        "meta_mean_anomaly": 67.4479,
        "meta_ephemeris_type": 0,
        "meta_classification_type": "U",
        "meta_norad_cat_id": 31030,
        "meta_element_set_no": 999,
        "meta_rev_at_epoch": 96703,
        "meta_bstar": 0.0014322777,
        "meta_mean_motion_dot": 3.238e-05,
        "meta_mean_motion_ddot": 0,
        "tle_line1": "1 31030U 99025BDY 25346.65858926  .00003238  00000+0  14323-2 0  9991",
        "tle_line2": "2 31030  98.7668  48.5808 0027809  84.4916  67.4479 14.23673726967037"
      },
      "geometry": {
        "type": "Point",
        "coordinates": [
          -138.66114201040517,
          -42.138688782329915
        ]
      }
    },
    {
      "type": "Feature",
      "properties": {
        "norad_id": 31031,
        "name": "FENGYUN 1C DEB",
        "group": "fengyun-1c-debris",
        "lat": -38.04476529205085,
        "lon": 77.38503497330044,
        "alt_km": 811.809185522904,
        "timestamp": "2025-12-13T10:41:26.046403+00:00",
        "meta_object_name": "FENGYUN 1C DEB",
        "meta_object_id": "1999-025BDZ",
        "meta_epoch": "2025-12-11T05:59:48.395616",
        "meta_mean_motion": 14.20980827,
        "meta_eccentricity": 0.00276611,
        "meta_inclination": 99.0716,
        "meta_ra_of_asc_node": 262.314,
        "meta_arg_of_pericenter": 190.9459,
        "meta_mean_anomaly": 322.1063,
        "meta_ephemeris_type": 0,
        "meta_classification_type": "U",
        "meta_norad_cat_id": 31031,
        "meta_element_set_no": 999,
        "meta_rev_at_epoch": 96833,
        "meta_bstar": 0.00066122667,
        "meta_mean_motion_dot": 1.392e-05,
        "meta_mean_motion_ddot": 0,
        "tle_line1": "1 31031U 99025BDZ 25345.24986569  .00001392  00000+0  66123-3 0  9996",
        "tle_line2": "2 31031  99.0716 262.3140 0027661 190.9459 322.1063 14.20980827968336"
      },
      "geometry": {
        "type": "Point",
        "coordinates": [
          77.38503497330044,
          -38.04476529205085
        ]
      }
    },
    {
      "type": "Feature",
      "properties": {
        "norad_id": 31032,
        "name": "FENGYUN 1C DEB",
        "group": "fengyun-1c-debris",
        "lat": -10.066249000474484,
        "lon": 174.60968502752868,
        "alt_km": 789.5017667810444,
        "timestamp": "2025-12-13T10:41:26.046414+00:00",
        "meta_object_name": "FENGYUN 1C DEB",
        "meta_object_id": "1999-025BEA",
        "meta_epoch": "2025-12-12T23:38:59.663328",
        "meta_mean_motion": 14.02199905,
        "meta_eccentricity": 0.01390144,
        "meta_inclination": 99.4007,
        "meta_ra_of_asc_node": 355.8206,
        "meta_arg_of_pericenter": 195.3689,
        "meta_mean_anomaly": 193.9044,
        "meta_ephemeris_type": 0,
        "meta_classification_type": "U",
        "meta_norad_cat_id": 31032,
        "meta_element_set_no": 999,
        "meta_rev_at_epoch": 94985,
        "meta_bstar": 0.0018109189,
        "meta_mean_motion_dot": 2.97e-05,
        "meta_mean_motion_ddot": 0,
        "tle_line1": "1 31032U 99025BEA 25346.98541277  .00002970  00000+0  18109-2 0  9995",
        "tle_line2": "2 31032  99.4007 355.8206 0139014 195.3689 193.9044 14.02199905949853"
      },
      "geometry": {
        "type": "Point",
        "coordinates": [
          174.60968502752868,
          -10.066249000474484
        ]
      }
    },
    {
      "type": "Feature",
      "properties": {
        "norad_id": 31033,
        "name": "FENGYUN 1C DEB",
        "group": "fengyun-1c-debris",
        "lat": -52.10437887083387,
        "lon": -23.258180032639494,
        "alt_km": 911.7822707155683,
        "timestamp": "2025-12-13T10:41:26.046425+00:00",
        "meta_object_name": "FENGYUN 1C DEB",
        "meta_object_id": "1999-025BEB",
        "meta_epoch": "2025-12-12T17:15:35.410176",
        "meta_mean_motion": 14.27451922,
        "meta_eccentricity": 0.01541232,
        "meta_inclination": 98.4383,
        "meta_ra_of_asc_node": 325.0458,
        "meta_arg_of_pericenter": 110.5201,
        "meta_mean_anomaly": 67.1166,
        "meta_ephemeris_type": 0,
        "meta_classification_type": "U",
        "meta_norad_cat_id": 31033,
        "meta_element_set_no": 999,
        "meta_rev_at_epoch": 97345,
        "meta_bstar": 0.00028311883,
        "meta_mean_motion_dot": 7.46e-06,
        "meta_mean_motion_ddot": 0,
        "tle_line1": "1 31033U 99025BEB 25346.71915984  .00000746  00000+0  28312-3 0  9994",
        "tle_line2": "2 31033  98.4383 325.0458 0154123 110.5201  67.1166 14.27451922973452"
      },
      "geometry": {
        "type": "Point",
        "coordinates": [
          -23.258180032639494,
          -52.10437887083387
        ]
      }
    }
  ]
}